#dP2019  1 15  0  0  0.00000000      96 __u+U ITR00 FIT  IAC
## 2036 172800.00000000   900.00000000 58498 0.0000000000000
+   98   C01C02C03C04C05C06C07C08C09C10C11C12C13C14C30E01E02
+        E03E04E05E07E08E09E11E12E13E14E15E18E19E21E24E25E26
+        E27E30E31E33E36G01G02G03G04G05G06G07G08G09G10G11G12
+        G13G14G15G16G17G18G19G20G21G22G23G24G25G26G27G28G29
+        G30G31G32J01J02J03J07R01R02R03R04R05R07R08R09R10R11
+        R13R14R15R16R17R18R19R20R21R22R23R24R26  0  0  0  0
++        12 12 12 12 12  9  9  9  8  9  8  8  9  8 14  5  5
++         5  5  5  5  5  5  5  5  6  5  6  5  5  5  5  5  5
++         5  5  5  6  7  3  3  3  4  3  3  3  3  3  3  3  3
++         3  3  3  3  3  3  3  3  3  3  3  3  3  3  3  3  3
++         3  3  3 10 10 10 15  5  5  5  5  5  6  5  5  5  5
++         5  5  5  5  5  5  5  5  6  5  5  6  8  0  0  0  0
%c M  cc GPS ccc cccc cccc cccc cccc ccccc ccccc ccccc ccccc
%c cc cc ccc ccc cccc cccc cccc cccc ccccc ccccc ccccc ccccc
%f  0.0000000  0.000000000  0.00000000000  0.000000000000000
%f  0.0000000  0.000000000  0.00000000000  0.000000000000000
%i    0    0    0    0      0      0      0      0         0
%i    0    0    0    0      0      0      0      0         0
/* INFORMATION & ANALYSIS CENTER (IAC) OF MCC   (RAPID DATA)
/* S/V CLOCKS ARE ALIGNED TO GPS & GLONASS TIME RESPECTIVELY
/* USING THE BROADCAST EPHEMERIS                            
/* PCV:IGS14_2035 OL/AL:FES2004  NONE     YN ORB:CoN CLK:CoN
*  2019 01 15 15 30  0.00000000
PC01 -32298.301415  27079.548341   1042.200418     91.712754
PC02   4326.955360  41967.351735   -224.163335   -247.093196
PC03 -14856.177982  39440.862350    549.412450   -112.297394
PC04 -39621.752491  14411.006356    658.646101   -213.101119
PC05  21872.687207  36033.848537   -498.691163    -65.066790
PC06 -13923.047184  20806.376021 -33685.536190    277.223841
PC07 -23601.207130  33018.964577  10656.450193    198.718028
PC08  -6856.613318  35813.816473  21492.574108     89.722096
PC09   2003.525824  26276.422446 -32661.251021    451.817562
PC10 -10643.839906  33864.671877  22598.188975   -410.095461
PC11  19538.132072   2036.096361 -19785.247370    -93.483917
PC12  16977.709531  21897.666438   3760.489493    347.983209
PC13    747.422930  40922.113652  10714.412483   -486.325254
PC14  25878.648495   1221.426951 -10248.714758    730.688207
PC30 -22448.421271  -9902.121938  13320.909299 999999.999999
PE01  16962.168621 -24076.199052  -2947.722720   -521.366890
PE02 -16940.531022  24097.654966   2992.494814     43.445630
PE03 -13826.395546  13816.470349 -22230.711937   -122.490655
PE04  -8396.114845 -17456.916662  22379.883905   -200.619884
PE05 -28110.429626   2049.261600  -9049.359648    124.584698
PE07  25889.848673  10871.457764  -9376.505021   -113.097305
PE08   8656.090171  17248.288044 -22450.137608   6422.885481
PE09 -25979.309394 -10591.720445   9417.014324   6557.431039
PE11 -17904.944191 -18336.448607  14827.132411   5719.835901
PE12  -8377.580133 -28136.212443  -3838.774856   5948.710598
PE13  17909.429267  18398.254867 -14714.770146    381.765353
PE14  12317.366949  18575.923908  10399.978285   6459.508641
PE15   8756.855339  28056.745026   3522.680906    922.885456
PE18  -5863.185361 -24130.332855 -19967.661256   5604.230350
PE19  15790.980014 -12829.683812  21494.196990     -9.103640
PE21  22377.448153 -11502.042009  15590.712037   -514.574992
PE24 -14875.014249  -7349.250102 -24523.443484   6284.554683
PE25 -22374.024057  11472.878619 -15614.997427   1923.011750
PE26  16819.182883  -1861.848067 -24276.349736   5016.598102
PE27  14489.327302   7779.708932  24615.035229    549.161015
PE30  -1563.629473  22256.942815  19451.670704   5186.296869
PE31   1886.437938 -22460.824925 -19179.041980    931.930836
PE33   5527.552876 -21345.138121 -19736.816292    847.921249
PE36 -16615.518352   2082.501177  24420.146557    759.331679
PG01 -13254.953593  12046.590316  19335.991804   -145.846973
PG02  13826.297624  12399.110064 -18465.957653   -113.837249
PG03 -23037.364545  13139.122090      2.125797    177.363084
PG04    532.091417  17108.560714 -20298.220379     83.928537
PG05  20541.310954   1791.828696 -16970.272542      0.812579
PG06   7455.288184  22949.618300 -11034.600757    296.325524
PG07  -6714.534330  23786.798834  -8829.160456     51.184338
PG08 -23459.393093  -3716.768681  12125.607474   -129.168906
PG09  -6574.493023  13987.386877 -21649.184124    471.381596
PG10    -38.381852 -16623.689973  20719.834510    135.102326
PG11 -14479.790507   7002.562980  20603.078362   -674.929202
PG12  24305.989788 -10163.794191   2269.486803    276.137389
PG13  22874.259108  11890.477517   6343.644363    -78.223990
PG14 -16846.816180 -18941.699038   8530.356874    -93.112516
PG15  22981.372577   -318.401487  13383.073897   -332.127377
PG16 -20508.847900  -2946.574851 -17033.280902    -12.906957
PG17   9154.878116  19117.991810  16478.317757     -4.356283
PG18 -15143.375742    820.550905  21326.264332     16.058605
PG19  16855.490930  18740.541314   7906.686544   -363.066172
PG20   8860.423310 -20135.400941  14672.773011    521.150387
PG21   2774.707020 -25660.410765  -5648.360334   -268.606154
PG22 -23856.433317   8687.287143   7950.137702   -623.354016
PG23 -16911.741446   6529.606092 -19234.556972   -200.443963
PG24  14778.189553  -7276.854115  20632.314640    -60.844796
PG25  18714.250613 -16929.306986  -8049.104119   -706.303881
PG26 -12963.000295  -9681.646895 -21101.776585     97.151270
PG27 -23874.085124 -11633.221867   2819.276576    -49.516814
PG28  -3008.088958  16767.640317  21020.883368    762.014112
PG29  10507.008481 -10541.984826 -22016.470559    292.688785
PG30    222.893930  26379.079972   2141.828604    -36.344438
PG31  -8741.148633 -20870.712806 -13525.320264     65.567941
PG32 -12275.346448 -18737.742644  14391.059760   -273.528345
PJ01 -33890.473672  20846.659943  -9216.956451   -213.330797
PJ02 -24384.207346  31782.227231  -8705.083487     -0.751391
PJ03 -24332.864767  24821.049374  29097.617411      3.955414
PJ07 -25403.384644  33667.057906     -8.258003    633.623004
PR01  14933.038782   8300.947599 -18951.118284     37.975094
PR02  25436.393811   -378.542949  -1415.708005    349.512633
PR03  18814.469026  -8092.516844  15207.385167    154.596893
PR04    705.085335 -11012.676088  23006.067836    291.412480
PR05 -16844.797487  -7524.306199  17629.182186     20.020412
PR07 -18550.052744   8188.435374 -15473.152849    -55.903962
PR08  -1576.812264  11005.836014 -22912.764848     19.538757
PR09 -14477.992546   6831.463731 -19824.690906     49.139958
PR10 -14462.405944  19568.821029  -7546.295442     39.715184
PR11  -5979.491507  22365.515808  10679.831517    -53.586544
PR13  13899.575373  -6036.477514  20500.884214    -19.019669
PR14  14393.956385 -19699.525990   7468.376035     34.965204
PR15   6628.741615 -22555.047810  -9869.024161     99.308375
PR16  -5334.110659 -12436.095047 -21619.288822    -11.654969
PR17   6971.177281  -8714.241298 -22918.465550    196.400958
PR18  -5089.329547 -20427.056458 -14427.055567     30.015454
PR19 -13843.048561 -21333.041502   1982.377021    -62.072070
PR20 -15031.554468  -8756.226513  18690.070147   -365.692956
PR21  -6523.473644   9215.669302  22883.177567    -25.722244
PR22   6574.555425  21199.495005  12467.889198    -64.300901
PR23  15524.461757  19076.530335  -6762.784138    203.401955
PR24  14811.174046   7046.162321 -19547.850024   -176.069901
PR26 -15649.055066 -10172.206536  17390.362351     15.943882
EOF
